{"type": "FeatureCollection", "features": [ {"type": "Feature", "properties": {"norad_id": 32289, "name": "YAOGAN-3", "group": "resource", "lat": 47.43942995145823, "lon": -3.0299811455344083, "alt_km": 593.4594030313747, "timestamp": "2025-12-04T21:36:15.530895+00:00", "meta": {"OBJECT_NAME": "YAOGAN-3", "OBJECT_ID": "2007-055A", "EPOCH": "2025-12-04T14:56:30.125760", "MEAN_MOTION": 14.89797183, "ECCENTRICITY": 0.0001513, "INCLINATION": 97.8371, "RA_OF_ASC_NODE": 5.3215, "ARG_OF_PERICENTER": 78.9176, "MEAN_ANOMALY": 281.2212, "EPHEMERIS_TYPE": 0, "CLASSIFICATION_TYPE": "U", "NORAD_CAT_ID": 32289, "ELEMENT_SET_NO": 999, "REV_AT_EPOCH": 97688, "BSTAR": 0.00064811656, "MEAN_MOTION_DOT": 6.166e-05, "MEAN_MOTION_DDOT": 0}, "tle": {"line1": "1 32289U 07055A   25338.62257090  .00006166  00000+0  64812-3 0  9995", "line2": "2 32289  97.8371   5.3215 0001513  78.9176 281.2212 14.89797183976888"}}, "geometry": {"type": "Point", "coordinates": [-3.0299811455344083, 47.43942995145823]}}, {"type": "Feature", "properties": {"norad_id": 32376, "name": "COSMO-SKYMED 2", "group": "resource", "lat": -3.455033074579013, "lon": -20.13741616047101, "alt_km": 626.1210126644837, "timestamp": "2025-12-04T21:36:15.530910+00:00", "meta": {"OBJECT_NAME": "COSMO-SKYMED 2", "OBJECT_ID": "2007-059A", "EPOCH": "2025-12-04T15:55:08.298336", "MEAN_MOTION": 14.8215119, "ECCENTRICITY": 0.00015615, "INCLINATION": 97.8806, "RA_OF_ASC_NODE": 160.1085, "ARG_OF_PERICENTER": 88.0122, "MEAN_ANOMALY": 272.127, "EPHEMERIS_TYPE": 0, "CLASSIFICATION_TYPE": "U", "NORAD_CAT_ID": 32376, "ELEMENT_SET_NO": 999, "REV_AT_EPOCH": 97318, "BSTAR": 0.0001708664, "MEAN_MOTION_DOT": 1.308e-05, "MEAN_MOTION_DDOT": 0}, "tle": {"line1": "1 32376U 07059A   25338.66329049  .00001308  00000+0  17087-3 0  9999", "line2": "2 32376  97.8806 160.1085 0001561  88.0122 272.1270 14.82151190973187"}}, "geometry": {"type": "Point", "coordinates": [-20.13741616047101, -3.455033074579013]}}, {"type": "Feature", "properties": {"norad_id": 32382, "name": "RADARSAT-2", "group": "resource", "lat": 17.41896007859832, "lon": 166.31921975464624, "alt_km": 791.972815952392, "timestamp": "2025-12-04T21:36:15.530921+00:00", "meta": {"OBJECT_NAME": "RADARSAT-2", "OBJECT_ID": "2007-061A", "EPOCH": "2025-12-04T14:07:51.053376", "MEAN_MOTION": 14.29984204, "ECCENTRICITY": 0.00010775, "INCLINATION": 98.5799, "RA_OF_ASC_NODE": 343.2974, "ARG_OF_PERICENTER": 90.3761, "MEAN_ANOMALY": 269.7545, "EPHEMERIS_TYPE": 0, "CLASSIFICATION_TYPE": "U", "NORAD_CAT_ID": 32382, "ELEMENT_SET_NO": 999, "REV_AT_EPOCH": 93814, "BSTAR": 7.9378276e-05, "MEAN_MOTION_DOT": 1.61e-06, "MEAN_MOTION_DDOT": 0}, "tle": {"line1": "1 32382U 07061A   25338.58878534  .00000161  00000+0  79378-4 0  9996", "line2": "2 32382  98.5799 343.2974 0001077  90.3761 269.7545 14.29984204938146"}}, "geometry": {"type": "Point", "coordinates": [166.31921975464624, 17.41896007859832]}}, {"type": "Feature", "properties": {"norad_id": 32783, "name": "CARTOSAT-2A", "group": "resource", "lat": 53.45864924267155, "lon": 18.317111591585107, "alt_km": 619.8549840255564, "timestamp": "2025-12-04T21:36:15.530931+00:00", "meta": {"OBJECT_NAME": "CARTOSAT-2A", "OBJECT_ID": "2008-021A", "EPOCH": "2025-12-04T14:51:55.931904", "MEAN_MOTION": 14.78913956, "ECCENTRICITY": 0.00124091, "INCLINATION": 97.7943, "RA_OF_ASC_NODE": 28.6963, "ARG_OF_PERICENTER": 30.1052, "MEAN_ANOMALY": 330.087, "EPHEMERIS_TYPE": 0, "CLASSIFICATION_TYPE": "U", "NORAD_CAT_ID": 32783, "ELEMENT_SET_NO": 999, "REV_AT_EPOCH": 95004, "BSTAR": 0.00024487739, "MEAN_MOTION_DOT": 1.757e-05, "MEAN_MOTION_DDOT": 0}, "tle": {"line1": "1 32783U 08021A   25338.61939736  .00001757  00000+0  24488-3 0  9997", "line2": "2 32783  97.7943  28.6963 0012409  30.1052 330.0870 14.78913956950047"}}, "geometry": {"type": "Point", "coordinates": [18.317111591585107, 53.45864924267155]}}, {"type": "Feature", "properties": {"norad_id": 33320, "name": "HUANJING 1A (HJ-1A)", "group": "resource", "lat": 25.147892593948985, "lon": 151.14562020357167, "alt_km": 619.4379609698071, "timestamp": "2025-12-04T21:36:15.530942+00:00", "meta": {"OBJECT_NAME": "HUANJING 1A (HJ-1A)", "OBJECT_ID": "2008-041A", "EPOCH": "2025-12-04T16:03:18.589824", "MEAN_MOTION": 14.83354487, "ECCENTRICITY": 0.00206076, "INCLINATION": 97.653, "RA_OF_ASC_NODE": 327.305, "ARG_OF_PERICENTER": 59.5737, "MEAN_ANOMALY": 300.7511, "EPHEMERIS_TYPE": 0, "CLASSIFICATION_TYPE": "U", "NORAD_CAT_ID": 33320, "ELEMENT_SET_NO": 999, "REV_AT_EPOCH": 92956, "BSTAR": 0.00042204392, "MEAN_MOTION_DOT": 3.421e-05, "MEAN_MOTION_DDOT": 0}, "tle": {"line1": "1 33320U 08041A   25338.66896516  .00003421  00000+0  42204-3 0  9996", "line2": "2 33320  97.6530 327.3050 0020607  59.5737 300.7511 14.83354487929569"}}, "geometry": {"type": "Point", "coordinates": [151.14562020357167, 25.147892593948985]}}, {"type": "Feature", "properties": {"norad_id": 33321, "name": "HUANJING 1B (HJ-1B)", "group": "resource", "lat": 30.62916145488527, "lon": -33.31381279163048, "alt_km": 609.491646014927, "timestamp": "2025-12-04T21:36:15.530952+00:00", "meta": {"OBJECT_NAME": "HUANJING 1B (HJ-1B)", "OBJECT_ID": "2008-041B", "EPOCH": "2025-12-04T14:59:13.465824", "MEAN_MOTION": 14.82788477, "ECCENTRICITY": 0.0038226, "INCLINATION": 97.6391, "RA_OF_ASC_NODE": 330.9806, "ARG_OF_PERICENTER": 101.4694, "MEAN_ANOMALY": 259.0817, "EPHEMERIS_TYPE": 0, "CLASSIFICATION_TYPE": "U", "NORAD_CAT_ID": 33321, "ELEMENT_SET_NO": 999, "REV_AT_EPOCH": 92957, "BSTAR": 0.0003179133, "MEAN_MOTION_DOT": 2.552e-05, "MEAN_MOTION_DDOT": 0}, "tle": {"line1": "1 33321U 08041B   25338.62446141  .00002552  00000+0  31791-3 0  9991", "line2": "2 33321  97.6391 330.9806 0038226 101.4694 259.0817 14.82788477929574"}}, "geometry": {"type": "Point", "coordinates": [-33.31381279163048, 30.62916145488527]}}, {"type": "Feature", "properties": {"norad_id": 33331, "name": "GEOEYE 1", "group": "resource", "lat": 15.108262466631404, "lon": -127.5107171868083, "alt_km": 680.2936363718218, "timestamp": "2025-12-04T21:36:15.530963+00:00", "meta": {"OBJECT_NAME": "GEOEYE 1", "OBJECT_ID": "2008-042A", "EPOCH": "2025-12-04T14:17:50.106048", "MEAN_MOTION": 14.64795523, "ECCENTRICITY": 0.00029334, "INCLINATION": 98.1262, "RA_OF_ASC_NODE": 49.9779, "ARG_OF_PERICENTER": 312.3778, "MEAN_ANOMALY": 47.7176, "EPHEMERIS_TYPE": 0, "CLASSIFICATION_TYPE": "U", "NORAD_CAT_ID": 33331, "ELEMENT_SET_NO": 999, "REV_AT_EPOCH": 92166, "BSTAR": 0.00024100454, "MEAN_MOTION_DOT": 1.238e-05, "MEAN_MOTION_DDOT": 0}, "tle": {"line1": "1 33331U 08042A   25338.59571882  .00001238  00000+0  24100-3 0  9996", "line2": "2 33331  98.1262  49.9779 0002933 312.3778  47.7176 14.64795523921668"}}, "geometry": {"type": "Point", "coordinates": [-127.5107171868083, 15.108262466631404]}}, {"type": "Feature", "properties": {"norad_id": 33396, "name": "THEOS", "group": "resource", "lat": -21.085381766241742, "lon": -146.11961646069278, "alt_km": 830.4107542369911, "timestamp": "2025-12-04T21:36:15.530975+00:00", "meta": {"OBJECT_NAME": "THEOS", "OBJECT_ID": "2008-049A", "EPOCH": "2025-12-04T15:35:12.650208", "MEAN_MOTION": 14.20093826, "ECCENTRICITY": 0.00011005, "INCLINATION": 98.588, "RA_OF_ASC_NODE": 36.9774, "ARG_OF_PERICENTER": 100.278, "MEAN_ANOMALY": 259.8521, "EPHEMERIS_TYPE": 0, "CLASSIFICATION_TYPE": "U", "NORAD_CAT_ID": 33396, "ELEMENT_SET_NO": 999, "REV_AT_EPOCH": 89035, "BSTAR": 9.5724823e-05, "MEAN_MOTION_DOT": 1.61e-06, "MEAN_MOTION_DDOT": 0}, "tle": {"line1": "1 33396U 08049A   25338.64945197  .00000161  00000+0  95725-4 0  9990", "line2": "2 33396  98.5880  36.9774 0001100 100.2780 259.8521 14.20093826890352"}}, "geometry": {"type": "Point", "coordinates": [-146.11961646069278, -21.085381766241742]}}, {"type": "Feature", "properties": {"norad_id": 33412, "name": "COSMO-SKYMED 3", "group": "resource", "lat": 47.05846448973558, "lon": -179.36139032697764, "alt_km": 556.2074169163225, "timestamp": "2025-12-04T21:36:15.530986+00:00", "meta": {"OBJECT_NAME": "COSMO-SKYMED 3", "OBJECT_ID": "2008-054A", "EPOCH": "2025-12-04T15:00:39.624768", "MEAN_MOTION": 15.05233553, "ECCENTRICITY": 0.00155466, "INCLINATION": 97.8461, "RA_OF_ASC_NODE": 188.8809, "ARG_OF_PERICENTER": 201.1553, "MEAN_ANOMALY": 158.9032, "EPHEMERIS_TYPE": 0, "CLASSIFICATION_TYPE": "U", "NORAD_CAT_ID": 33412, "ELEMENT_SET_NO": 999, "REV_AT_EPOCH": 92765, "BSTAR": 0.00066933394, "MEAN_MOTION_DOT": 9.524e-05, "MEAN_MOTION_DDOT": 0}, "tle": {"line1": "1 33412U 08054A   25338.62545862  .00009524  00000+0  66933-3 0  9998", "line2": "2 33412  97.8461 188.8809 0015546 201.1553 158.9032 15.05233553927659"}}, "geometry": {"type": "Point", "coordinates": [-179.36139032697764, 47.05846448973558]}}, {"type": "Feature", "properties": {"norad_id": 33446, "name": "YAOGAN-4", "group": "resource", "lat": -52.56970676363066, "lon": -80.44772812815862, "alt_km": 620.6111576460589, "timestamp": "2025-12-04T21:36:15.530996+00:00", "meta": {"OBJECT_NAME": "YAOGAN-4", "OBJECT_ID": "2008-061A", "EPOCH": "2025-12-04T08:53:09.383136", "MEAN_MOTION": 14.82641717, "ECCENTRICITY": 0.0014315, "INCLINATION": 97.9171, "RA_OF_ASC_NODE": 268.5523, "ARG_OF_PERICENTER": 351.2867, "MEAN_ANOMALY": 8.8096, "EPHEMERIS_TYPE": 0, "CLASSIFICATION_TYPE": "U", "NORAD_CAT_ID": 33446, "ELEMENT_SET_NO": 999, "REV_AT_EPOCH": 91679, "BSTAR": 0.00043299935, "MEAN_MOTION_DOT": 3.441e-05, "MEAN_MOTION_DDOT": 0}, "tle": {"line1": "1 33446U 08061A   25338.37024749  .00003441  00000+0  43300-3 0  9996", "line2": "2 33446  97.9171 268.5523 0014315 351.2867   8.8096 14.82641717916797"}}, "geometry": {"type": "Point", "coordinates": [-80.44772812815862, -52.56970676363066]}}]}